[{"OBJECT_NAME":"ONEWEB-0395","OBJECT_ID":"2021-132G","EPOCH":"2026-03-09T23:33:00.857952","MEAN_MOTION":13.11413147,"ECCENTRICITY":0.00019334,"INCLINATION":87.886,"RA_OF_ASC_NODE":40.7967,"ARG_OF_PERICENTER":78.3949,"MEAN_ANOMALY":281.7396,"EPHEMERIS_TYPE":0,"CLASSIFICATION_TYPE":"U","NORAD_CAT_ID":50475,"ELEMENT_SET_NO":999,"REV_AT_EPOCH":20271,"BSTAR":0.0027327331,"MEAN_MOTION_DOT":9.81e-6,"MEAN_MOTION_DDOT":0},{"OBJECT_NAME":"ARIANE 1 DEB","OBJECT_ID":"1986-019VQ","EPOCH":"2026-03-09T15:29:26.823840","MEAN_MOTION":13.67576853,"ECCENTRICITY":0.0381214,"INCLINATION":98.8657,"RA_OF_ASC_NODE":214.429,"ARG_OF_PERICENTER":175.2541,"MEAN_ANOMALY":185.2389,"EPHEMERIS_TYPE":0,"CLASSIFICATION_TYPE":"U","NORAD_CAT_ID":35517,"ELEMENT_SET_NO":999,"REV_AT_EPOCH":12930,"BSTAR":0.00054602,"MEAN_MOTION_DOT":7.25e-6,"MEAN_MOTION_DDOT":0}]
